STARLINK-32652          
1 62234U 24231S   26068.72385874  .00030018  00000+0  10210-2 0  9992
2 62234  53.1588 219.4672 0001025 101.1660 258.9456 15.30215305 71768
HAWK-11B                
1 62379U 24247C   26068.44730104  .00009093  00000+0  32842-3 0  9993
2 62379  45.0161 115.7610 0004690 333.0326  27.0314 15.28847070 67738
