[{"OBJECT_NAME":"STARLINK-32652","OBJECT_ID":"2024-231S","EPOCH":"2026-03-09T17:22:21.396000","MEAN_MOTION":15.30215305,"ECCENTRICITY":0.00010249,"INCLINATION":53.1588,"RA_OF_ASC_NODE":219.4672,"ARG_OF_PERICENTER":101.166,"MEAN_ANOMALY":258.9456,"EPHEMERIS_TYPE":0,"CLASSIFICATION_TYPE":"U","NORAD_CAT_ID":62234,"ELEMENT_SET_NO":999,"REV_AT_EPOCH":7176,"BSTAR":0.0010210428,"MEAN_MOTION_DOT":0.00030018,"MEAN_MOTION_DDOT":0},{"OBJECT_NAME":"HAWK-11B","OBJECT_ID":"2024-247C","EPOCH":"2026-03-09T10:44:06.809856","MEAN_MOTION":15.2884707,"ECCENTRICITY":0.00046902,"INCLINATION":45.0161,"RA_OF_ASC_NODE":115.761,"ARG_OF_PERICENTER":333.0326,"MEAN_ANOMALY":27.0314,"EPHEMERIS_TYPE":0,"CLASSIFICATION_TYPE":"U","NORAD_CAT_ID":62379,"ELEMENT_SET_NO":999,"REV_AT_EPOCH":6773,"BSTAR":0.00032841927,"MEAN_MOTION_DOT":9.093e-5,"MEAN_MOTION_DDOT":0}]
